CCSDS_OMM_VERS = 2.0
CREATION_DATE  = 
ORIGINATOR     = 

OBJECT_NAME    = RSP-03
OBJECT_ID      = 1998-067XL
CENTER_NAME    = EARTH
REF_FRAME      = TEME
TIME_SYSTEM    = UTC
MEAN_ELEMENT_THEORY = SGP/SGP4

EPOCH          = 2026-02-02T11:18:06.446016
MEAN_MOTION    = 15.93857976
ECCENTRICITY   = .0005259
INCLINATION    = 51.6168
RA_OF_ASC_NODE = 229.1317
ARG_OF_PERICENTER = 237.4270
MEAN_ANOMALY   = 122.6230

EPHEMERIS_TYPE = 0
CLASSIFICATION_TYPE = U
NORAD_CAT_ID   = 65732
ELEMENT_SET_NO = 999
REV_AT_EPOCH   = 2133
BSTAR          = .13007E-2
MEAN_MOTION_DOT = .485346E-2
MEAN_MOTION_DDOT = .1047E-3

CCSDS_OMM_VERS = 2.0
CREATION_DATE  = 
ORIGINATOR     = 

OBJECT_NAME    = YOTSUBA-KULOVER
OBJECT_ID      = 1998-067XN
CENTER_NAME    = EARTH
REF_FRAME      = TEME
TIME_SYSTEM    = UTC
MEAN_ELEMENT_THEORY = SGP/SGP4

EPOCH          = 2026-02-01T23:10:51.950784
MEAN_MOTION    = 15.69111811
ECCENTRICITY   = .00043038
INCLINATION    = 51.6243
RA_OF_ASC_NODE = 240.8549
ARG_OF_PERICENTER = 204.8791
MEAN_ANOMALY   = 155.1999

EPHEMERIS_TYPE = 0
CLASSIFICATION_TYPE = U
NORAD_CAT_ID   = 65941
ELEMENT_SET_NO = 999
REV_AT_EPOCH   = 1787
BSTAR          = .79074266E-3
MEAN_MOTION_DOT = .94122E-3
MEAN_MOTION_DDOT = 0

CCSDS_OMM_VERS = 2.0
CREATION_DATE  = 
ORIGINATOR     = 

OBJECT_NAME    = BOTAN
OBJECT_ID      = 1998-067XP
CENTER_NAME    = EARTH
REF_FRAME      = TEME
TIME_SYSTEM    = UTC
MEAN_ELEMENT_THEORY = SGP/SGP4

EPOCH          = 2026-02-01T22:57:04.064256
MEAN_MOTION    = 15.80194193
ECCENTRICITY   = .0005708
INCLINATION    = 51.6181
RA_OF_ASC_NODE = 237.7572
ARG_OF_PERICENTER = 221.3112
MEAN_ANOMALY   = 138.7459

EPHEMERIS_TYPE = 0
CLASSIFICATION_TYPE = U
NORAD_CAT_ID   = 65942
ELEMENT_SET_NO = 999
REV_AT_EPOCH   = 1791
BSTAR          = .11904331E-2
MEAN_MOTION_DOT = .233928E-2
MEAN_MOTION_DDOT = 0

CCSDS_OMM_VERS = 2.0
CREATION_DATE  = 
ORIGINATOR     = 

OBJECT_NAME    = E-KAGAKU-1
OBJECT_ID      = 1998-067XQ
CENTER_NAME    = EARTH
REF_FRAME      = TEME
TIME_SYSTEM    = UTC
MEAN_ELEMENT_THEORY = SGP/SGP4

EPOCH          = 2026-02-01T00:15:39.731328
MEAN_MOTION    = 15.68840331
ECCENTRICITY   = .00033114
INCLINATION    = 51.6263
RA_OF_ASC_NODE = 245.7378
ARG_OF_PERICENTER = 210.8324
MEAN_ANOMALY   = 149.2478

EPHEMERIS_TYPE = 0
CLASSIFICATION_TYPE = U
NORAD_CAT_ID   = 65943
ELEMENT_SET_NO = 999
REV_AT_EPOCH   = 1772
BSTAR          = .78708321E-3
MEAN_MOTION_DOT = .92603E-3
MEAN_MOTION_DDOT = 0

CCSDS_OMM_VERS = 2.0
CREATION_DATE  = 
ORIGINATOR     = 

OBJECT_NAME    = HRC MONOBLOCK CAMERA
OBJECT_ID      = 1998-067XR
CENTER_NAME    = EARTH
REF_FRAME      = TEME
TIME_SYSTEM    = UTC
MEAN_ELEMENT_THEORY = SGP/SGP4

EPOCH          = 2026-02-01T23:04:48.103968
MEAN_MOTION    = 15.58516654
ECCENTRICITY   = .00003218
INCLINATION    = 51.6276
RA_OF_ASC_NODE = 245.3353
ARG_OF_PERICENTER = 23.0063
MEAN_ANOMALY   = 337.0944

EPHEMERIS_TYPE = 0
CLASSIFICATION_TYPE = U
NORAD_CAT_ID   = 66052
ELEMENT_SET_NO = 999
REV_AT_EPOCH   = 1681
BSTAR          = .48608411E-3
MEAN_MOTION_DOT = .37542E-3
MEAN_MOTION_DDOT = 0

CCSDS_OMM_VERS = 2.0
CREATION_DATE  = 
ORIGINATOR     = 

OBJECT_NAME    = HTV-X1
OBJECT_ID      = 2025-241A
CENTER_NAME    = EARTH
REF_FRAME      = TEME
TIME_SYSTEM    = UTC
MEAN_ELEMENT_THEORY = SGP/SGP4

EPOCH          = 2026-02-02T01:57:17.389728
MEAN_MOTION    = 15.48333853
ECCENTRICITY   = .00111275
INCLINATION    = 51.6312
RA_OF_ASC_NODE = 248.3815
ARG_OF_PERICENTER = 55.3966
MEAN_ANOMALY   = 304.8070

EPHEMERIS_TYPE = 0
CLASSIFICATION_TYPE = U
NORAD_CAT_ID   = 66174
ELEMENT_SET_NO = 999
REV_AT_EPOCH   = 51
BSTAR          = .17109812E-3
MEAN_MOTION_DOT = .8786E-4
MEAN_MOTION_DDOT = 0

CCSDS_OMM_VERS = 2.0
CREATION_DATE  = 
ORIGINATOR     = 

OBJECT_NAME    = SZ-21 MODULE
OBJECT_ID      = 2025-246C
CENTER_NAME    = EARTH
REF_FRAME      = TEME
TIME_SYSTEM    = UTC
MEAN_ELEMENT_THEORY = SGP/SGP4

EPOCH          = 2026-02-02T10:49:29.189856
MEAN_MOTION    = 15.65879972
ECCENTRICITY   = .0003319
INCLINATION    = 41.4757
RA_OF_ASC_NODE = 59.8384
ARG_OF_PERICENTER = 268.1734
MEAN_ANOMALY   = 91.8727

EPHEMERIS_TYPE = 0
CLASSIFICATION_TYPE = U
NORAD_CAT_ID   = 66515
ELEMENT_SET_NO = 999
REV_AT_EPOCH   = 1254
BSTAR          = .31088E-3
MEAN_MOTION_DOT = .32344E-3
MEAN_MOTION_DDOT = 0

CCSDS_OMM_VERS = 2.0
CREATION_DATE  = 
ORIGINATOR     = 

OBJECT_NAME    = SHENZHOU-22
OBJECT_ID      = 2025-272A
CENTER_NAME    = EARTH
REF_FRAME      = TEME
TIME_SYSTEM    = UTC
MEAN_ELEMENT_THEORY = SGP/SGP4

EPOCH          = 2026-02-01T17:30:34.226784
MEAN_MOTION    = 15.61502009
ECCENTRICITY   = .00087809
INCLINATION    = 41.4671
RA_OF_ASC_NODE = 66.6440
ARG_OF_PERICENTER = 58.4806
MEAN_ANOMALY   = 301.6890

EPHEMERIS_TYPE = 0
CLASSIFICATION_TYPE = U
NORAD_CAT_ID   = 66645
ELEMENT_SET_NO = 999
REV_AT_EPOCH   = 26764
BSTAR          = .32519537E-3
MEAN_MOTION_DOT = .28466E-3
MEAN_MOTION_DDOT = 0

CCSDS_OMM_VERS = 2.0
CREATION_DATE  = 
ORIGINATOR     = 

OBJECT_NAME    = SOYUZ-MS 28
OBJECT_ID      = 2025-275A
CENTER_NAME    = EARTH
REF_FRAME      = TEME
TIME_SYSTEM    = UTC
MEAN_ELEMENT_THEORY = SGP/SGP4

EPOCH          = 2026-02-02T09:41:59.913024
MEAN_MOTION    = 15.48339220
ECCENTRICITY   = .0011124
INCLINATION    = 51.6313
RA_OF_ASC_NODE = 246.7863
ARG_OF_PERICENTER = 56.5485
MEAN_ANOMALY   = 303.6565

EPHEMERIS_TYPE = 0
CLASSIFICATION_TYPE = U
NORAD_CAT_ID   = 66664
ELEMENT_SET_NO = 999
REV_AT_EPOCH   = 55086
BSTAR          = .16704E-3
MEAN_MOTION_DOT = .8568E-4
MEAN_MOTION_DDOT = 0

CCSDS_OMM_VERS = 2.0
CREATION_DATE  = 
ORIGINATOR     = 

OBJECT_NAME    = DUPLEX
OBJECT_ID      = 1998-067XS
CENTER_NAME    = EARTH
REF_FRAME      = TEME
TIME_SYSTEM    = UTC
MEAN_ELEMENT_THEORY = SGP/SGP4

EPOCH          = 2026-02-02T07:16:40.634112
MEAN_MOTION    = 15.53710140
ECCENTRICITY   = .0001573
INCLINATION    = 51.6286
RA_OF_ASC_NODE = 246.1157
ARG_OF_PERICENTER = 82.3437
MEAN_ANOMALY   = 277.7732

EPHEMERIS_TYPE = 0
CLASSIFICATION_TYPE = U
NORAD_CAT_ID   = 66906
ELEMENT_SET_NO = 999
REV_AT_EPOCH   = 962
BSTAR          = .41284E-3
MEAN_MOTION_DOT = .26529E-3
MEAN_MOTION_DDOT = 0

CCSDS_OMM_VERS = 2.0
CREATION_DATE  = 
ORIGINATOR     = 

OBJECT_NAME    = 1998-067XT
OBJECT_ID      = 1998-067XT
CENTER_NAME    = EARTH
REF_FRAME      = TEME
TIME_SYSTEM    = UTC
MEAN_ELEMENT_THEORY = SGP/SGP4

EPOCH          = 2026-02-01T23:59:16.296288
MEAN_MOTION    = 15.60110214
ECCENTRICITY   = .00027037
INCLINATION    = 51.6262
RA_OF_ASC_NODE = 246.3359
ARG_OF_PERICENTER = 169.0927
MEAN_ANOMALY   = 191.0125

EPHEMERIS_TYPE = 0
CLASSIFICATION_TYPE = U
NORAD_CAT_ID   = 66907
ELEMENT_SET_NO = 999
REV_AT_EPOCH   = 959
BSTAR          = .95066741E-3
MEAN_MOTION_DOT = .78957E-3
MEAN_MOTION_DDOT = 0

CCSDS_OMM_VERS = 2.0
CREATION_DATE  = 
ORIGINATOR     = 

OBJECT_NAME    = 1998-067XU
OBJECT_ID      = 1998-067XU
CENTER_NAME    = EARTH
REF_FRAME      = TEME
TIME_SYSTEM    = UTC
MEAN_ELEMENT_THEORY = SGP/SGP4

EPOCH          = 2026-02-01T23:58:39.340416
MEAN_MOTION    = 15.60143030
ECCENTRICITY   = .00025881
INCLINATION    = 51.6258
RA_OF_ASC_NODE = 246.3309
ARG_OF_PERICENTER = 170.0910
MEAN_ANOMALY   = 190.0135

EPHEMERIS_TYPE = 0
CLASSIFICATION_TYPE = U
NORAD_CAT_ID   = 66908
ELEMENT_SET_NO = 999
REV_AT_EPOCH   = 959
BSTAR          = .99129319E-3
MEAN_MOTION_DOT = .82493E-3
MEAN_MOTION_DDOT = 0

