RSP-03                  
1 65732U 98067XL  26033.47090794  .00485346  10470-3  13007-2 0  9995
2 65732  51.6168 229.1317 0005259 237.4270 122.6230 15.93857976 21338
YOTSUBA-KULOVER         
1 65941U 98067XN  26032.96587906  .00094122  00000+0  79074-3 0  9995
2 65941  51.6243 240.8549 0004303 204.8791 155.1999 15.69111811 17877
BOTAN                   
1 65942U 98067XP  26032.95629704  .00233928  00000+0  11904-2 0  9994
2 65942  51.6181 237.7572 0005708 221.3112 138.7459 15.80194193 17911
E-KAGAKU-1              
1 65943U 98067XQ  26032.01087652  .00092603  00000+0  78708-3 0  9991
2 65943  51.6263 245.7378 0003311 210.8324 149.2478 15.68840331 17727
HRC MONOBLOCK CAMERA    
1 66052U 98067XR  26032.96166787  .00037542  00000+0  48608-3 0  9991
2 66052  51.6276 245.3353 0000321  23.0063 337.0944 15.58516654 16815
HTV-X1                  
1 66174U 25241A   26033.08145127  .00008786  00000+0  17110-3 0  9991
2 66174  51.6312 248.3815 0011127  55.3966 304.8070 15.48333853   512
SZ-21 MODULE            
1 66515U 25246C   26033.45103229  .00032344  00000+0  31088-3 0  9990
2 66515  41.4757  59.8384 0003319 268.1734  91.8727 15.65879972 12542
SHENZHOU-22             
1 66645U 25272A   26032.72956281  .00028466  00000+0  32520-3 0  9998
2 66645  41.4671  66.6440 0008780  58.4806 301.6890 15.61502009267643
SOYUZ-MS 28             
1 66664U 25275A   26033.40416566  .00008568  00000+0  16704-3 0  9992
2 66664  51.6313 246.7863 0011124  56.5485 303.6565 15.48339220550866
DUPLEX                  
1 66906U 98067XS  26033.30324808  .00026529  00000+0  41284-3 0  9994
2 66906  51.6286 246.1157 0001573  82.3437 277.7732 15.53710140  9625
1998-067XT              
1 66907U 98067XT  26032.99949417  .00078957  00000+0  95067-3 0  9998
2 66907  51.6262 246.3359 0002703 169.0927 191.0125 15.60110214  9593
1998-067XU              
1 66908U 98067XU  26032.99906644  .00082493  00000+0  99129-3 0  9997
2 66908  51.6258 246.3309 0002588 170.0910 190.0135 15.60143030  9591
